ORBCOMM-X               
1 21576U 91050C   24325.12486292  .00000758  00000+0  23973-3 0  9992
2 21576  98.3724  29.7294 0004833  97.7510 262.4229 14.42923925752187
ORBCOMM FM01            
1 23545U 95017A   24325.19959820  .00012839  00000+0  14992-2 0  9999
2 23545  69.9648 233.5285 0007515 278.6969  81.3332 14.85267282581779
ORBCOMM FM02            
1 23546U 95017B   24325.19916771  .00014507  00000+0  16981-2 0  9992
2 23546  69.9671 253.2114 0009581 278.9067  81.1001 14.85115730581369
ORBCOMM FM08            
1 25112U 97084A   24325.06922694  .00004202  00000+0  12498-2 0  9996
2 25112  45.0142 290.7101 0007809 282.5979  77.3998 14.44327947411290
ORBCOMM FM10            
1 25113U 97084B   24325.09159293  .00004015  00000+0  11999-2 0  9994
2 25113  45.0156 292.6504 0005130 259.4137 100.6136 14.44184216411281
ORBCOMM FM11            
1 25114U 97084C   24325.06190779  .00003221  00000+0  97520-3 0  9999
2 25114  45.0140 293.0689 0006014 257.1263 102.8916 14.43965652411269
ORBCOMM FM12            
1 25115U 97084D   24325.37219708  .00003152  00000+0  95524-3 0  9993
2 25115  45.0149 291.3425 0005000 261.4571  98.5713 14.43967243411312
ORBCOMM FM09            
1 25116U 97084E   24325.11275202  .00003587  00000+0  10828-2 0  9992
2 25116  45.0154 293.3424 0005722 242.4024 117.6246 14.43901043411278
